{
    "links": {
        "self": "http://www.neowsapp.com/rest/v1/neo/54068386?api_key=iIulBulltgU6a56xZRHN4H3l9WmuAYTsLGpBGhQ2"
    },
    "id": "54068386",
    "neo_reference_id": "54068386",
    "name": "(2020 TL6)",
    "designation": "2020 TL6",
    "nasa_jpl_url": "http://ssd.jpl.nasa.gov/sbdb.cgi?sstr=54068386",
    "absolute_magnitude_h": 24.06,
    "estimated_diameter": {
        "kilometers": {
            "estimated_diameter_min": 0.040978398,
            "estimated_diameter_max": 0.0916304836
        },
        "meters": {
            "estimated_diameter_min": 40.9783980394,
            "estimated_diameter_max": 91.6304836251
        },
        "miles": {
            "estimated_diameter_min": 0.0254627882,
            "estimated_diameter_max": 0.0569365252
        },
        "feet": {
            "estimated_diameter_min": 134.4435674236,
            "estimated_diameter_max": 300.6249558967
        }
    },
    "is_potentially_hazardous_asteroid": false,
    "close_approach_data": [
        {
            "close_approach_date": "1995-10-07",
            "close_approach_date_full": "1995-Oct-07 12:31",
            "epoch_date_close_approach": 813069060000,
            "relative_velocity": {
                "kilometers_per_second": "13.9944283756",
                "kilometers_per_hour": "50379.942152043",
                "miles_per_hour": "31304.1368333069"
            },
            "miss_distance": {
                "astronomical": "0.4010894192",
                "lunar": "156.0237840688",
                "kilometers": "60002122.791857104",
                "miles": "37283590.2398078752"
            },
            "orbiting_body": "Earth"
        },
        {
            "close_approach_date": "2011-06-06",
            "close_approach_date_full": "2011-Jun-06 07:55",
            "epoch_date_close_approach": 1307346900000,
            "relative_velocity": {
                "kilometers_per_second": "7.1073846801",
                "kilometers_per_hour": "25586.5848482697",
                "miles_per_hour": "15898.5087908596"
            },
            "miss_distance": {
                "astronomical": "0.4877213179",
                "lunar": "189.7235926631",
                "kilometers": "72962070.311432873",
                "miles": "45336528.2087767274"
            },
            "orbiting_body": "Earth"
        },
        {
            "close_approach_date": "2020-10-07",
            "close_approach_date_full": "2020-Oct-07 13:20",
            "epoch_date_close_approach": 1602076800000,
            "relative_velocity": {
                "kilometers_per_second": "7.7844577289",
                "kilometers_per_hour": "28024.0478241731",
                "miles_per_hour": "17413.0534938591"
            },
            "miss_distance": {
                "astronomical": "0.1607022251",
                "lunar": "62.5131655639",
                "kilometers": "24040710.579220537",
                "miles": "14938204.8601639306"
            },
            "orbiting_body": "Earth"
        },
        {
            "close_approach_date": "2036-10-05",
            "close_approach_date_full": "2036-Oct-05 13:57",
            "epoch_date_close_approach": 2106827820000,
            "relative_velocity": {
                "kilometers_per_second": "8.8604656446",
                "kilometers_per_hour": "31897.6763205506",
                "miles_per_hour": "19819.9756003999"
            },
            "miss_distance": {
                "astronomical": "0.1603315598",
                "lunar": "62.3689767622",
                "kilometers": "23985259.839857626",
                "miles": "14903749.3684461988"
            },
            "orbiting_body": "Earth"
        }
    ],
    "orbital_data": {
        "orbit_id": "3",
        "orbit_determination_date": "2020-10-24 07:46:48",
        "first_observation_date": "2020-10-08",
        "last_observation_date": "2020-10-23",
        "data_arc_in_days": 15,
        "observations_used": 21,
        "orbit_uncertainty": "7",
        "minimum_orbit_intersection": ".145575",
        "jupiter_tisserand_invariant": "4.540",
        "epoch_osculation": "2459000.5",
        "eccentricity": ".2434463604682024",
        "semi_major_axis": "1.4691194945649",
        "inclination": "14.51744528420908",
        "ascending_node_longitude": "25.32330956222436",
        "orbital_period": "650.4053566292932",
        "perihelion_distance": "1.11146770052019",
        "perihelion_argument": "322.2470275530342",
        "aphelion_distance": "1.826771288609611",
        "perihelion_time": "2459097.313146242817",
        "mean_anomaly": "306.4138290188176",
        "mean_motion": ".5535009764767151",
        "equinox": "J2000",
        "orbit_class": {
            "orbit_class_type": "AMO",
            "orbit_class_description": "Near-Earth asteroid orbits similar to that of 1221 Amor",
            "orbit_class_range": "1.017 AU < q (perihelion) < 1.3 AU"
        }
    },
    "is_sentry_object": false
}